<!DOCTYPE html>
<html lang="en-US" dir="ltr">
<!--********************************************-->
<!--*       Generated from PreTeXt source      *-->
<!--*                                          *-->
<!--*         https://pretextbook.org          *-->
<!--*                                          *-->
<!--********************************************-->
<head>
<meta http-equiv="Content-Type" content="text/html; charset=UTF-8">
<meta name="robots" content="noindex, nofollow">
</head>
<body class="ignore-math">
<article class="exercise exercise-like"><h4 class="heading">
<span class="type">Exercise</span><span xmlns:pf="https://prefigure.org" class="space"> </span><span class="codenumber">5<span xmlns:pf="https://prefigure.org" class="period">.</span></span><span xmlns:pf="https://prefigure.org" class="space"> </span><span class="title">From METARs to Vorticity.</span>
</h4>
<div xmlns:pf="https://prefigure.org" class="para">Using METAR data, we can estimate the value of <span class="process-math">\(\eta = \frac{\partial v}{\partial x} - \frac{\partial u}{\partial y}\)</span> at location <span class="process-math">\(X\)</span> in <a href="sec_curl.html#estimateetasquare" class="xref" data-knowl="./knowl/xref/estimateetasquare.html" data-reveal-label="Reveal" data-close-label="Close" title="Figure 6.3.14">Figure 6.3.14</a>.</div> <div xmlns:pf="https://prefigure.org" class="para">City Code A: 052152Z 23005KT 10SM SCT045 SCT220 17/07 A3012 RMK AO2 SLP202 T01670067</div> <div xmlns:pf="https://prefigure.org" class="para">City Code B: 052154Z 24008KT 10SM FEW030 15/07 A3014 RMK AO2 SLP206 T01500072</div> <div xmlns:pf="https://prefigure.org" class="para">City Code C: 052153Z 15006KT 10SM SCT030CB SCT045 BKN140 BKN250 24/21 A3006 RMK AO2 LTG DSNT E AND NW SLP178 CB NW-N AND DSNT E-SE MOV NE T02390211</div> <div xmlns:pf="https://prefigure.org" class="para">City Code D: 052151Z 29010G17KT 10SM FEW065 FEW250 17/M02 A3005 RMK AO2 SLP177 T01671022</div> <figure class="figure figure-like"><div xmlns:pf="https://prefigure.org" class="image-box" style="width: 25%; margin-left: 37.5%; margin-right: 37.5%;">
<img src="generated/latex-image/estimateetasquarepic.svg" role="img" class="contained" alt="described in detail following the image" aria-describedby="estimateetasquarepic-description"><details class="image-description" aria-live="polite"><summary title="details"><span class="icon material-symbols-outlined" aria-hidden="true">&#xe88e;</span></summary><div id="estimateetasquarepic-description">A square with <span class="process-math">\(X\)</span> in the middle and cities on the edges.</div></details>
</div>
<figcaption xmlns:pf="https://prefigure.org"><span class="type">Figure</span><span class="space"> </span><span class="codenumber">6.3.14<span class="period">.</span></span><span class="space"> </span>Diagram for <a href="sec_curl.html#MetarsToVorticity" class="xref" data-knowl="./knowl/xref/MetarsToVorticity.html" data-reveal-label="Reveal" data-close-label="Close" title="Exercise 6.3.5: From METARs to Vorticity">Exercise 6.3.5</a>.  The dotted square in this case is 200 nm by 200 nm.</figcaption></figure> <ol class="lower-alpha" id="MetarsToVorticity-2-7">
<li><div class="para">Estimate <span xmlns:pf="https://prefigure.org" class="process-math">\(\frac{\Delta v}{\Delta x}\)</span> at point <span xmlns:pf="https://prefigure.org" class="process-math">\(X\text{.}\)</span>
</div></li>
<li><div class="para">Estimate <span xmlns:pf="https://prefigure.org" class="process-math">\(\frac{\Delta u}{\Delta y}\)</span> at point <span xmlns:pf="https://prefigure.org" class="process-math">\(X\text{.}\)</span>
</div></li>
<li><div class="para">Estimate <span xmlns:pf="https://prefigure.org" class="process-math">\(\eta\)</span> at point <span xmlns:pf="https://prefigure.org" class="process-math">\(X\text{.}\)</span>  Be sure to give appropriate units.</div></li>
</ol>
<div class="solutions"><details xmlns:pf="https://prefigure.org" class="answer solution-like born-hidden-knowl"><summary class="knowl__link"><span class="type">Answer</span><span class="period">.</span></summary><div class="answer solution-like knowl__content"><ol class="lower-alpha" id="MetarsToVorticity-3-1">
<li><div class="para"><div class="displaymath process-math">
\begin{align*}
\frac{\Delta v}{\Delta x} \approx \mathstrut \amp \frac{6\sin(60)-8\sin(30) \ {\rm{kt}}}{200 \ {\rm{nm}}} \\
\approx \mathstrut \amp 5.98 \times 10^{-3} \frac{1}{hr}
\end{align*}
</div></div></li>
<li><div class="para"><div class="displaymath process-math">
\begin{align*}
\frac{\Delta u}{\Delta y} \approx \mathstrut \amp \frac{5\cos(40)-10\cos(20) \ {\rm{kt}}}{200 \ {\rm{nm}}} \\
\approx \mathstrut \amp -2.78 \times 10^{-2} \frac{1}{hr} 
\end{align*}
</div></div></li>
<li><div class="para"><div class="displaymath process-math">
\begin{align*}
\eta = \mathstrut \amp \frac{\partial v}{\partial x} - \frac{\partial u}{\partial y} \\
\approx \mathstrut \amp 0.00598 - (-0.0278) \\
\approx \mathstrut \amp 0.03378  \frac{1}{hr}
\end{align*}
</div></div></li>
</ol></div></details></div></article><span class="incontext"><a class="internal" href="sec_curl.html#MetarsToVorticity">in-context</a></span>
</body>
</html>
