<!DOCTYPE html>
<html lang="en-US">
<!--********************************************-->
<!--*       Generated from PreTeXt source      *-->
<!--*                                          *-->
<!--*         https://pretextbook.org          *-->
<!--*                                          *-->
<!--********************************************-->
<head>
<meta http-equiv="Content-Type" content="text/html; charset=UTF-8">
<meta name="robots" content="noindex, nofollow">
</head>
<body class="ignore-math">
<h4 class="heading"><span class="type">Paragraph</span></h4>
<div class="para">Draw a wind barb representing the wind in Phoenix, AZ given in the METAR data. <code class="code-inline tex2jax_ignore">KPHX 260051Z 19015KT 10SM FEW100 23/M06 A2982 RMK AO2 SLP087 T02281056</code>
</div>
<span class="incontext"><a href="sec_displacementvectors.html#p-203" class="internal">in-context</a></span>
</body>
</html>
